{
  "type": "FeatureCollection",
  "features": [
    {
      "type": "Feature",
      "properties": {
        "norad_id": 66581,
        "name": "STARLINK-35744",
        "group": "last-30-days",
        "lat": 38.18764241276547,
        "lon": -163.5480882800915,
        "alt_km": 403.5190765204652,
        "timestamp": "2025-12-20T18:51:30.444808+00:00",
        "meta_object_name": "STARLINK-35744",
        "meta_object_id": "2025-268AA",
        "meta_epoch": "2025-12-20T12:11:08.741184",
        "meta_mean_motion": 15.51171688,
        "meta_eccentricity": 0.00194177,
        "meta_inclination": 43.0014,
        "meta_ra_of_asc_node": 75.6513,
        "meta_arg_of_pericenter": 38.7334,
        "meta_mean_anomaly": 321.4915,
        "meta_ephemeris_type": 0,
        "meta_classification_type": "U",
        "meta_norad_cat_id": 66581,
        "meta_element_set_no": 999,
        "meta_rev_at_epoch": 583,
        "meta_bstar": 0.0011801122,
        "meta_mean_motion_dot": 0.00071548,
        "meta_mean_motion_ddot": 0,
        "tle_line1": "1 66581U 25268AA  25354.50774006  .00071548  00000+0  11801-2 0  9994",
        "tle_line2": "2 66581  43.0014  75.6513 0019417  38.7334 321.4915 15.51171688  5831"
      },
      "geometry": {
        "type": "Point",
        "coordinates": [
          -163.5480882800915,
          38.18764241276547
        ]
      }
    },
    {
      "type": "Feature",
      "properties": {
        "norad_id": 66582,
        "name": "STARLINK-35746",
        "group": "last-30-days",
        "lat": 37.45059346538698,
        "lon": -161.26311410174696,
        "alt_km": 403.62308839600973,
        "timestamp": "2025-12-20T18:51:30.444819+00:00",
        "meta_object_name": "STARLINK-35746",
        "meta_object_id": "2025-268AB",
        "meta_epoch": "2025-12-20T12:10:39.225216",
        "meta_mean_motion": 15.51195543,
        "meta_eccentricity": 0.00196853,
        "meta_inclination": 43.0006,
        "meta_ra_of_asc_node": 75.6486,
        "meta_arg_of_pericenter": 40.0324,
        "meta_mean_anomaly": 320.1984,
        "meta_ephemeris_type": 0,
        "meta_classification_type": "U",
        "meta_norad_cat_id": 66582,
        "meta_element_set_no": 999,
        "meta_rev_at_epoch": 583,
        "meta_bstar": 0.0016006229,
        "meta_mean_motion_dot": 0.00097588,
        "meta_mean_motion_ddot": 0,
        "tle_line1": "1 66582U 25268AB  25354.50739844  .00097588  00000+0  16006-2 0  9990",
        "tle_line2": "2 66582  43.0006  75.6486 0019685  40.0324 320.1984 15.51195543  5832"
      },
      "geometry": {
        "type": "Point",
        "coordinates": [
          -161.26311410174696,
          37.45059346538698
        ]
      }
    },
    {
      "type": "Feature",
      "properties": {
        "norad_id": 66583,
        "name": "STARLINK-35941",
        "group": "last-30-days",
        "lat": 36.47258054910555,
        "lon": -158.47835067522277,
        "alt_km": 400.1209080858771,
        "timestamp": "2025-12-20T18:51:30.444831+00:00",
        "meta_object_name": "STARLINK-35941",
        "meta_object_id": "2025-268AC",
        "meta_epoch": "2025-12-20T05:59:10.873824",
        "meta_mean_motion": 15.5129279,
        "meta_eccentricity": 0.0012733,
        "meta_inclination": 43.0013,
        "meta_ra_of_asc_node": 77.1533,
        "meta_arg_of_pericenter": 76.6546,
        "meta_mean_anomaly": 283.5733,
        "meta_ephemeris_type": 0,
        "meta_classification_type": "U",
        "meta_norad_cat_id": 66583,
        "meta_element_set_no": 999,
        "meta_rev_at_epoch": 579,
        "meta_bstar": 0.0016923,
        "meta_mean_motion_dot": 0.00103155,
        "meta_mean_motion_ddot": 0,
        "tle_line1": "1 66583U 25268AC  25354.24943141  .00103155  00000+0  16923-2 0  9995",
        "tle_line2": "2 66583  43.0013  77.1533 0012733  76.6546 283.5733 15.51292790  5790"
      },
      "geometry": {
        "type": "Point",
        "coordinates": [
          -158.47835067522277,
          36.47258054910555
        ]
      }
    },
    {
      "type": "Feature",
      "properties": {
        "norad_id": 66584,
        "name": "STARLINK-35939",
        "group": "last-30-days",
        "lat": 36.50369056503283,
        "lon": -158.57233303891206,
        "alt_km": 407.79060161011876,
        "timestamp": "2025-12-20T18:51:30.444842+00:00",
        "meta_object_name": "STARLINK-35939",
        "meta_object_id": "2025-268AD",
        "meta_epoch": "2025-12-19T14:31:27.869088",
        "meta_mean_motion": 15.50751867,
        "meta_eccentricity": 0.0002615,
        "meta_inclination": 42.9992,
        "meta_ra_of_asc_node": 80.9182,
        "meta_arg_of_pericenter": 187.8218,
        "meta_mean_anomaly": 172.2602,
        "meta_ephemeris_type": 0,
        "meta_classification_type": "U",
        "meta_norad_cat_id": 66584,
        "meta_element_set_no": 999,
        "meta_rev_at_epoch": 569,
        "meta_bstar": 0.0012867,
        "meta_mean_motion_dot": 0.00076356,
        "meta_mean_motion_ddot": 0,
        "tle_line1": "1 66584U 25268AD  25353.60518367  .00076356  00000+0  12867-2 0  9998",
        "tle_line2": "2 66584  42.9992  80.9182 0002615 187.8218 172.2602 15.50751867  5698"
      },
      "geometry": {
        "type": "Point",
        "coordinates": [
          -158.57233303891206,
          36.50369056503283
        ]
      }
    },
    {
      "type": "Feature",
      "properties": {
        "norad_id": 66585,
        "name": "STARLINK-35963",
        "group": "last-30-days",
        "lat": 28.930554376422172,
        "lon": -142.40562230722585,
        "alt_km": 394.5920806308932,
        "timestamp": "2025-12-20T18:51:30.444852+00:00",
        "meta_object_name": "STARLINK-35963",
        "meta_object_id": "2025-268AE",
        "meta_epoch": "2025-12-20T14:00:03.000384",
        "meta_mean_motion": 15.56189581,
        "meta_eccentricity": 0.00015318,
        "meta_inclination": 43.0007,
        "meta_ra_of_asc_node": 75.1686,
        "meta_arg_of_pericenter": 266.8516,
        "meta_mean_anomaly": 172.603,
        "meta_ephemeris_type": 0,
        "meta_classification_type": "U",
        "meta_norad_cat_id": 66585,
        "meta_element_set_no": 999,
        "meta_rev_at_epoch": 592,
        "meta_bstar": 0.0025586396,
        "meta_mean_motion_dot": 0.00188146,
        "meta_mean_motion_ddot": 0,
        "tle_line1": "1 66585U 25268AE  25354.58336806  .00188146  00000+0  25586-2 0  9996",
        "tle_line2": "2 66585  43.0007  75.1686 0001531 266.8516 172.6030 15.56189581  5927"
      },
      "geometry": {
        "type": "Point",
        "coordinates": [
          -142.40562230722585,
          28.930554376422172
        ]
      }
    },
    {
      "type": "Feature",
      "properties": {
        "norad_id": 66586,
        "name": "TJS-21",
        "group": "last-30-days",
        "lat": 49.739839298635175,
        "lon": -161.98953147896069,
        "alt_km": 27825.733600282703,
        "timestamp": "2025-12-20T18:51:30.444865+00:00",
        "meta_object_name": "TJS-21",
        "meta_object_id": "2025-269A",
        "meta_epoch": "2025-12-18T16:58:10.473888",
        "meta_mean_motion": 2.00580748,
        "meta_eccentricity": 0.6806869,
        "meta_inclination": 63.2733,
        "meta_ra_of_asc_node": 161.7218,
        "meta_arg_of_pericenter": 269.7428,
        "meta_mean_anomaly": 18.6663,
        "meta_ephemeris_type": 0,
        "meta_classification_type": "U",
        "meta_norad_cat_id": 66586,
        "meta_element_set_no": 999,
        "meta_rev_at_epoch": 55,
        "meta_bstar": -0.059507049,
        "meta_mean_motion_dot": 1.084e-05,
        "meta_mean_motion_ddot": 0,
        "tle_line1": "1 66586U 25269A   25352.70706567  .00001084  00000+0 -59507-1 0  9990",
        "tle_line2": "2 66586  63.2733 161.7218 6806869 269.7428  18.6663  2.00580748   558"
      },
      "geometry": {
        "type": "Point",
        "coordinates": [
          -161.98953147896069,
          49.739839298635175
        ]
      }
    },
    {
      "type": "Feature",
      "properties": {
        "norad_id": 66587,
        "name": "CZ-3B R/B",
        "group": "last-30-days",
        "lat": 32.73774318128429,
        "lon": -161.26839213300696,
        "alt_km": 38704.3876229596,
        "timestamp": "2025-12-20T18:51:30.444880+00:00",
        "meta_object_name": "CZ-3B R/B",
        "meta_object_id": "2025-269B",
        "meta_epoch": "2025-12-18T04:21:45.908640",
        "meta_mean_motion": 2.0405465,
        "meta_eccentricity": 0.75166459,
        "meta_inclination": 51.3412,
        "meta_ra_of_asc_node": 168.3764,
        "meta_arg_of_pericenter": 229.6756,
        "meta_mean_anomaly": 36.1575,
        "meta_ephemeris_type": 0,
        "meta_classification_type": "U",
        "meta_norad_cat_id": 66587,
        "meta_element_set_no": 999,
        "meta_rev_at_epoch": 56,
        "meta_bstar": 0.00058948144,
        "meta_mean_motion_dot": 0.0008861,
        "meta_mean_motion_ddot": -1.447425e-06,
        "tle_line1": "1 66587U 25269B   25352.18178135  .00088610 -14474-5  58948-3 0  9993",
        "tle_line2": "2 66587  51.3412 168.3764 7516645 229.6756  36.1575  2.04054650   560"
      },
      "geometry": {
        "type": "Point",
        "coordinates": [
          -161.26839213300696,
          32.73774318128429
        ]
      }
    }
  ]
}